      2.10          N: GNSS NAV DATA                        RINEX VERSION / TYPE
fic2rin                                 10/19/2023 00:18:06 PGM / RUN BY / DATE
                                                            END OF HEADER
3  23 10 18  2  0  0.0 -.723660923541D-04  .231921148952D-10  .000000000000D+00
     .210000000000D+02 -.280937500000D+02  .372122643259D-08 -.252121973362D+01
    -.132620334625D-05  .509137567133D-02  .108145177364D-04  .515358402634D+04
     .266400000000D+06 -.540167093277D-07  .794645177876D+00 -.633299350739D-07
     .981062258370D+00  .181718750000D+03  .111780750471D+01 -.743709549917D-08
     .433589489314D-09  .100000000000D+01  .228400000000D+04  .000000000000D+00
     .240000000000D+01  .000000000000D+00  .186264514923D-08  .210000000000D+02
     .259200000000D+06  .400000000000D+01
2  23 10 18  2  0  0.0 -.540693756193D-03  .477484718431D-11  .000000000000D+00
     .780000000000D+02 -.116281250000D+03  .432089426830D-08  .132635734639D+01
    -.661611557007D-05  .160746126203D-01  .563450157642D-05  .515374279213D+04
     .266400000000D+06  .987201929092D-07 -.335853401574D+00 -.389292836189D-06
     .967835433773D+00  .275343750000D+03 -.133083926803D+01 -.810033741157D-08
    -.388230457071D-09  .100000000000D+01  .228400000000D+04  .000000000000D+00
     .240000000000D+01  .000000000000D+00 -.176951289177D-07  .780000000000D+02
     .259200000000D+06  .400000000000D+01
1  23 10 18  2  0  0.0  .163622666150D-03 -.341060513165D-12  .000000000000D+00
     .540000000000D+02 -.105281250000D+03  .380515850013D-08 -.132187061468D+01
    -.549852848053D-05  .128951261286D-01  .713765621185D-05  .515363387680D+04
     .266400000000D+06  .258907675743D-06 -.234136730929D+00  .193715095520D-06
     .990683338075D+00  .255500000000D+03  .991971200451D+00 -.774067957323D-08
    -.362872257943D-09  .100000000000D+01  .228400000000D+04  .000000000000D+00
     .240000000000D+01  .630000000000D+02  .512227416039D-08  .540000000000D+02
     .259200000000D+06  .400000000000D+01
20 23 10 18 19 59 44.0  .406152103096D-03 -.193267624127D-11  .000000000000D+00
     .450000000000D+02 -.691250000000D+02  .434910972931D-08  .266679073840D+01
    -.354833900928D-05  .410896388348D-02  .983849167824D-05  .515364344215D+04
     .331184000000D+06 -.540167093277D-07  .620776247948D+00 -.596046447754D-07
     .950726282069D+00  .182125000000D+03 -.281234543896D+01 -.789211445253D-08
     .324656380384D-09  .100000000000D+01  .228400000000D+04  .000000000000D+00
     .240000000000D+01  .000000000000D+00 -.838190317154D-08  .450000000000D+02
     .328440000000D+06  .400000000000D+01
3  23 10 18 19 59 44.0 -.708559527993D-04  .233058017329D-10  .000000000000D+00
     .650000000000D+02 -.586562500000D+02  .381694470535D-08  .645276213933D+00
    -.327825546265D-05  .509130570572D-02  .957958400249D-05  .515358215714D+04
     .331184000000D+06 -.726431608200D-07  .794152459752D+00  .204890966415D-07
     .981087198197D+00  .206406250000D+03  .111787412746D+01 -.764031824992D-08
     .377872882779D-09  .100000000000D+01  .228400000000D+04  .000000000000D+00
     .240000000000D+01  .000000000000D+00  .186264514923D-08  .650000000000D+02
     .328590000000D+06  .400000000000D+01
3  23 10 18 21 59 44.0 -.706878490746D-04  .233058017329D-10  .000000000000D+00
     .720000000000D+02 -.749375000000D+02  .366479551059D-08  .169509975038D+01
    -.388547778130D-05  .509248650633D-02  .981986522675D-05  .515358662605D+04
     .338384000000D+06 -.800937414169D-07  .794097361868D+00 -.596046447754D-07
     .981090097701D+00  .200031250000D+03  .111828020426D+01 -.759531637541D-08
     .398588031363D-09  .100000000000D+01  .228400000000D+04  .000000000000D+00
     .240000000000D+01  .000000000000D+00  .186264514923D-08  .720000000000D+02
     .331200000000D+06  .400000000000D+01
8  23 10 18 21 59 44.0 -.147796235979D-03 -.193267624127D-11  .000000000000D+00
     .780000000000D+02  .788750000000D+02  .473162566263D-08 -.126530234625D+01
     .410899519920D-05  .876221444923D-02  .207498669624D-05  .515376648331D+04
     .338384000000D+06  .894069671631D-07 -.133118592256D+01 -.189989805222D-06
     .956263058343D+00  .338843750000D+03  .271864876172D+00 -.838356349478D-08
     .603596570791D-10  .100000000000D+01  .228400000000D+04  .000000000000D+00
     .240000000000D+01  .000000000000D+00  .512227416039D-08  .780000000000D+02
     .331200000000D+06  .400000000000D+01
22 23 10 18 21 59 44.0  .100388657302D-03 -.716227077646D-11  .000000000000D+00
     .100000000000D+02  .974062500000D+02  .449911597767D-08 -.660584794362D+00
     .509805977345D-05  .152347959811D-01  .941380858421D-05  .515361388397D+04
     .338384000000D+06 -.180676579475D-06 -.225823299567D+01 -.502914190292D-07
     .963169684775D+00  .203093750000D+03 -.117554614418D+01 -.820641325862D-08
    -.785747015231D-11  .100000000000D+01  .228400000000D+04  .000000000000D+00
     .240000000000D+01  .000000000000D+00 -.111758708954D-07  .100000000000D+02
     .331200000000D+06  .400000000000D+01
24 23 10 18 21 59 44.0 -.349501147866D-03 -.977706804406D-11  .000000000000D+00
     .800000000000D+02 -.205000000000D+02  .528629162384D-08 -.307747645640D+01
    -.124424695969D-05  .146895676153D-01  .811181962490D-05  .515362924576D+04
     .338384000000D+06  .372529029846D-07  .279566203153D+01 -.307336449623D-06
     .934212445858D+00  .208062500000D+03  .932245989913D+00 -.807712215884D-08
    -.342514267094D-09  .100000000000D+01  .228400000000D+04  .000000000000D+00
     .240000000000D+01  .000000000000D+00  .232830643654D-08  .800000000000D+02
     .331200000000D+06  .400000000000D+01
20 23 10 18 21 59 44.0  .406138133258D-03 -.193267624127D-11  .000000000000D+00
     .470000000000D+02 -.709375000000D+02  .429803617332D-08 -.256630148528D+01
    -.366009771824D-05  .410830602050D-02  .947341322899D-05  .515364462852D+04
     .338384000000D+06 -.186264514923D-07  .620719647648D+00 -.391155481339D-07
     .950728751474D+00  .190218750000D+03 -.281224155130D+01 -.785639867911D-08
     .318941856637D-09  .100000000000D+01  .228400000000D+04  .000000000000D+00
     .240000000000D+01  .000000000000D+00 -.838190317154D-08  .470000000000D+02
     .331200000000D+06  .400000000000D+01
2  23 10 18 22  0  0.0 -.540347304195D-03  .477484718431D-11  .000000000000D+00
     .810000000000D+02 -.878125000000D+02  .435875298813D-08 -.739114731324D+00
    -.445172190666D-05  .160798936849D-01  .410526990891D-05  .515373818779D+04
     .338400000000D+06 -.236555933952D-06 -.336437957306D+00  .141561031342D-06
     .967819964878D+00  .307656250000D+03 -.133035493243D+01 -.844213736319D-08
    -.106433004790D-09  .100000000000D+01  .228400000000D+04  .000000000000D+00
     .240000000000D+01  .000000000000D+00 -.176951289177D-07  .810000000000D+02
     .331200000000D+06  .400000000000D+01
1  23 10 18 22  0  0.0  .163596589118D-03 -.341060513165D-12  .000000000000D+00
     .240000000000D+02 -.107468750000D+03  .365693804043D-08  .289692717543D+01
    -.552646815777D-05  .128963383613D-01  .432692468166D-05  .515363620186D+04
     .338400000000D+06  .558793544769D-07 -.234704578673D+00 -.540167093277D-07
     .990668660618D+00  .309062500000D+03  .991976227037D+00 -.766317634491D-08
    -.235724104569D-09  .100000000000D+01  .228400000000D+04  .000000000000D+00
     .240000000000D+01  .630000000000D+02  .512227416039D-08  .240000000000D+02
     .331200000000D+06  .400000000000D+01
5  23 10 18 22  0  0.0 -.147014390677D-03 -.147792889038D-11  .000000000000D+00
     .640000000000D+02 -.527187500000D+02  .398302305175D-08 -.911687214472D+00
    -.259093940258D-05  .595489016268D-02  .955909490585D-05  .515375055695D+04
     .338400000000D+06 -.186264514923D-08  .745654030729D+00  .912696123123D-07
     .968132063821D+00  .198718750000D+03  .123758226497D+01 -.781853995929D-08
     .385373195198D-09  .100000000000D+01  .228400000000D+04  .000000000000D+00
     .240000000000D+01  .000000000000D+00 -.111758708954D-07  .640000000000D+02
     .331200000000D+06  .400000000000D+01
4  23 10 18 22  0  0.0  .188241712749D-03  .108002495836D-10  .000000000000D+00
     .760000000000D+02 -.868750000000D+01  .472091093060D-08 -.154459503390D+01
    -.694766640663D-06  .263461947907D-02  .636093318462D-05  .515360587120D+04
     .338400000000D+06  .204890966415D-07  .187456886092D+01 -.242143869400D-07
     .963171816247D+00  .257937500000D+03 -.305708243479D+01 -.797211778499D-08
     .392516349881D-09  .100000000000D+01  .228400000000D+04  .000000000000D+00
     .240000000000D+01  .000000000000D+00 -.419095158577D-08  .844000000000D+03
     .331200000000D+06  .400000000000D+01
23 23 10 18 22  0  0.0  .847494229674D-04  .591171556152D-11  .000000000000D+00
     .100000000000D+01 -.568750000000D+02  .385944647572D-08  .198962959149D+01
    -.297091901302D-05  .377846753690D-02  .100750476122D-04  .515369115639D+04
     .338400000000D+06 -.502914190292D-07  .763587367073D+00  .931322574615D-08
     .975960338883D+00  .190843750000D+03 -.306852579840D+01 -.763138930657D-08
     .332513850537D-09  .100000000000D+01  .228400000000D+04  .000000000000D+00
     .240000000000D+01  .000000000000D+00 -.838190317154D-08  .100000000000D+01
     .331200000000D+06  .400000000000D+01
29 23 10 18 22  0  0.0 -.610114075243D-03 -.227373675443D-12  .000000000000D+00
     .160000000000D+02  .471250000000D+02  .439875465436D-08 -.134304295698D+01
     .242330133915D-05  .254371284973D-02  .175274908543D-05  .515369920349D+04
     .338400000000D+06  .000000000000D+00 -.122541009166D+01  .186264514923D-08
     .974267886031D+00  .352406250000D+03  .257492321639D+01 -.824427197845D-08
    -.371444043564D-10  .100000000000D+01  .228400000000D+04  .000000000000D+00
     .240000000000D+01  .000000000000D+00 -.977888703346D-08  .160000000000D+02
     .331200000000D+06  .400000000000D+01
